OBJECT_NAME,OBJECT_ID,EPOCH,MEAN_MOTION,ECCENTRICITY,INCLINATION,RA_OF_ASC_NODE,ARG_OF_PERICENTER,MEAN_ANOMALY,EPHEMERIS_TYPE,CLASSIFICATION_TYPE,NORAD_CAT_ID,ELEMENT_SET_NO,REV_AT_EPOCH,BSTAR,MEAN_MOTION_DOT,MEAN_MOTION_DDOT
SL-16 R/B,1994-077B,2026-06-19T05:46:32.062368,14.15572935,.00030037,70.9812,138.8422,326.4516,33.6416,0,U,23405,999,63060,.12863544E-3,.204E-5,0
ARIANE 40+ R/B,1995-021B,2026-06-19T05:01:03.736992,14.39834371,.00065916,98.4411,240.2548,187.5155,235.9563,0,U,23561,999,63385,.77389358E-4,.199E-5,0
SL-16 R/B,1995-058B,2026-06-19T04:21:53.087616,14.15509693,.00138908,71.0223,327.1701,317.7413,42.2639,0,U,23705,999,58221,.15610182E-3,.258E-5,0
SL-16 R/B,1996-051B,2026-06-19T03:44:33.919296,14.12446481,.00156389,70.7643,320.4818,333.9525,26.0806,0,U,24298,999,53597,.87908349E-4,.113E-5,0
ORBVIEW 2 (SEASTAR),1997-037A,2026-06-19T04:20:08.182464,14.35554052,.00032409,98.8690,337.2548,112.0620,248.0909,0,U,24883,999,52303,.7037204E-4,.156E-5,0
SL-16 R/B,1998-043G,2026-06-19T06:10:31.903680,14.26068918,.00109461,98.8364,124.4344,81.0220,279.2198,0,U,25400,999,45346,.3298227E-4,.34E-6,0
SL-16 R/B,1998-045B,2026-06-18T17:15:37.736928,14.16202683,.00093145,71.0116,329.1073,239.7939,120.2263,0,U,25407,999,44140,-.77852463E-4,-.202E-5,0
ISS (ZARYA),1998-067A,2026-06-19T01:26:30.738336,15.49309015,.00046526,51.6331,290.8234,203.3119,156.7659,0,U,25544,999,57204,.16988244E-3,.9022E-4,0
CZ-4B R/B,1999-025C,2026-06-19T02:33:02.035584,14.18283782,.0038003,98.6482,211.8965,54.2795,330.4807,0,U,25732,999,40254,.31735968E-4,.23E-6,0
OKEAN-O,1999-039A,2026-06-19T04:08:15.849888,14.80469496,.00015611,97.9315,228.9475,71.7929,288.3453,0,U,25860,999,44940,.68166487E-4,.469E-5,0
SL-16 R/B,1999-039B,2026-06-19T02:59:43.482048,14.81846708,.00134225,97.9836,228.9823,290.0372,69.9395,0,U,25861,999,45188,.49916781E-4,.341E-5,0
DELTA 2 R/B,1999-041E,2026-06-19T05:28:25.626432,14.12018743,.05008474,51.7652,255.6441,288.0500,66.6488,0,U,25876,999,37737,.93483232E-4,.344E-5,0
HELIOS 1B,1999-064A,2026-06-19T04:42:12.659040,14.88011178,.00025508,98.1613,75.3939,88.5551,271.5956,0,U,25977,999,70035,.1182944E-3,.1027E-4,0
TERRA,1999-068A,2026-06-19T06:57:16.279200,14.61104555,.00017575,97.9455,219.7527,182.5355,303.4138,0,U,25994,999,40991,.66439481E-4,.282E-5,0
SL-16 R/B,2000-006B,2026-06-19T06:07:43.706208,14.15834333,.00156368,71.0018,244.2767,19.8588,340.3141,0,U,26070,999,36293,.65758406E-4,.82E-6,0
TITAN 4B R/B,2000-047B,2026-06-19T05:54:01.754496,15.10207382,.00458424,67.9884,114.7787,284.9238,74.6838,0,U,26474,999,40824,.1593607E-3,.2534E-4,0
ENVISAT,2002-009A,2026-06-19T06:51:51.219936,14.39065214,.00013754,98.3835,121.5577,89.2747,77.9509,0,U,27386,999,27378,.34304814E-4,.63E-6,0
IDEFIX & ARIANE 42P R/B,2002-021B,2026-06-19T05:27:00.070560,14.31082909,.00106008,98.5942,107.6881,247.1591,112.8473,0,U,27422,999,25854,.77938141E-4,.162E-5,0
AQUA,2002-022A,2026-06-19T06:05:26.329344,14.62160797,.00010229,98.4277,139.5779,54.2403,58.3339,0,U,27424,999,28357,.12818726E-3,.595E-5,0
CZ-4B R/B,2002-024C,2026-06-19T03:25:34.431168,14.14564594,.00512081,98.8699,222.9503,94.8074,288.8855,0,U,27432,999,24358,.31696825E-4,.18E-6,0
MIDORI II (ADEOS-II),2002-056A,2026-06-19T04:02:04.756704,14.29350497,.00021767,98.7878,129.4448,74.0598,286.0823,0,U,27597,999,22479,.92420683E-4,.19E-5,0
H-2A R/B,2002-056E,2026-06-19T03:57:54.898272,14.33822710,.00692726,98.3312,126.7676,218.5963,151.4328,0,U,27601,999,22865,.63880472E-4,.14E-5,0
CZ-4B R/B,2003-049C,2026-06-19T05:24:33.088608,14.55101316,.00469201,98.6896,169.1531,282.2020,77.3923,0,U,28059,999,20136,.61059157E-4,.215E-5,0
CZ-2C R/B,2004-012C,2026-06-19T04:30:36.001152,15.79325175,.00095778,97.7074,246.0842,275.1367,84.8806,0,U,28222,999,22021,.5177342E-3,.93829E-3,0
SL-16 R/B,2004-021B,2026-06-19T06:47:00.631680,14.14607591,.00071828,71.0006,19.2915,252.1880,107.8460,0,U,28353,999,13720,-.8029221E-4,-.202E-5,0
CZ-4B R/B,2004-035C,2026-06-19T02:15:08.005824,15.30648898,.00296681,97.3361,203.1459,330.9548,29.0041,0,U,28415,999,19541,.20725415E-3,.6144E-4,0
CZ-2C R/B,2004-046B,2026-06-19T05:23:51.607104,14.27026854,.01385832,98.1944,78.8785,214.1949,145.0250,0,U,28480,999,12298,.33718346E-4,.49E-6,0
ARIANE 5 R/B,2004-049H,2026-06-19T05:14:29.713344,14.85451162,.00843556,98.2722,342.5495,22.8933,337.6006,0,U,28499,999,16086,.54220442E-4,.433E-5,0
CZ-2D R/B,2005-024B,2026-06-19T00:06:15.773472,15.69723670,.00030605,97.3481,189.5233,50.3212,309.8320,0,U,28738,999,15562,.38756247E-3,.46035E-3,0
ALOS (DAICHI),2006-002A,2026-06-19T03:10:47.116992,14.70053646,.00013762,98.1324,125.6938,56.4829,303.6508,0,U,28931,999,8838,.1406664E-3,.795E-5,0
