SL-16 R/B               
1 23405U 94077B   26170.24064887  .00000204  00000+0  12864-3 0  9995
2 23405  70.9812 138.8422 0003003 326.4516  33.6416 14.15572935630604
ARIANE 40+ R/B          
1 23561U 95021B   26170.20907103  .00000199  00000+0  77389-4 0  9998
2 23561  98.4411 240.2548 0006591 187.5155 235.9563 14.39834371633855
SL-16 R/B               
1 23705U 95058B   26170.18186444  .00000258  00000+0  15610-3 0  9996
2 23705  71.0223 327.1701 0013890 317.7413  42.2639 14.15509693582219
SL-16 R/B               
1 24298U 96051B   26170.15594814  .00000113  00000+0  87908-4 0  9999
2 24298  70.7643 320.4818 0015638 333.9525  26.0806 14.12446481535979
ORBVIEW 2 (SEASTAR)     
1 24883U 97037A   26170.18065026  .00000156  00000+0  70372-4 0  9999
2 24883  98.8690 337.2548 0003240 112.0620 248.0909 14.35554052523039
SL-16 R/B               
1 25400U 98043G   26170.25731370  .00000034  00000+0  32982-4 0  9993
2 25400  98.8364 124.4344 0010946  81.0220 279.2198 14.26068918453461
SL-16 R/B               
1 25407U 98045B   26169.71918677 -.00000202  00000+0 -77852-4 0  9992
2 25407  71.0116 329.1073 0009314 239.7939 120.2263 14.16202683441402
ISS (ZARYA)             
1 25544U 98067A   26170.06007799  .00009022  00000+0  16988-3 0  9991
2 25544  51.6331 290.8234 0004652 203.3119 156.7659 15.49309015572049
CZ-4B R/B               
1 25732U 99025C   26170.10627356  .00000023  00000+0  31736-4 0  9998
2 25732  98.6482 211.8965 0038003  54.2795 330.4807 14.18283782402540
OKEAN-O                 
1 25860U 99039A   26170.17240567  .00000469  00000+0  68166-4 0  9998
2 25860  97.9315 228.9475 0001561  71.7929 288.3453 14.80469496449407
SL-16 R/B               
1 25861U 99039B   26170.12480882  .00000341  00000+0  49917-4 0  9992
2 25861  97.9836 228.9823 0013422 290.0372  69.9395 14.81846708451889
DELTA 2 R/B             
1 25876U 99041E   26170.22807438  .00000344  00000+0  93483-4 0  9992
2 25876  51.7652 255.6441 0500847 288.0500  66.6488 14.12018743377376
HELIOS 1B               
1 25977U 99064A   26170.19597985  .00001027  00000+0  11829-3 0  9990
2 25977  98.1613  75.3939 0002550  88.5551 271.5956 14.88011178700359
TERRA                   
1 25994U 99068A   26170.28977175  .00000282  00000+0  66439-4 0  9996
2 25994  97.9455 219.7527 0001757 182.5355 303.4138 14.61104555409919
SL-16 R/B               
1 26070U 00006B   26170.25536697  .00000082  00000+0  65758-4 0  9994
2 26070  71.0018 244.2767 0015636  19.8588 340.3141 14.15834333362930
TITAN 4B R/B            
1 26474U 00047B   26170.24585364  .00002534  00000+0  15936-3 0  9997
2 26474  67.9884 114.7787 0045842 284.9238  74.6838 15.10207382408244
ENVISAT                 
1 27386U 02009A   26170.28600949  .00000063  00000+0  34305-4 0  9998
2 27386  98.3835 121.5577 0001375  89.2747  77.9509 14.39065214273784
IDEFIX & ARIANE 42P R/B 
1 27422U 02021B   26170.22708415  .00000162  00000+0  77938-4 0  9993
2 27422  98.5942 107.6881 0010600 247.1591 112.8473 14.31082909258540
AQUA                    
1 27424U 02022A   26170.25377696  .00000595  00000+0  12819-3 0  9998
2 27424  98.4277 139.5779 0001022  54.2403  58.3339 14.62160797283571
CZ-4B R/B               
1 27432U 02024C   26170.14275962  .00000018  00000+0  31697-4 0  9996
2 27432  98.8699 222.9503 0051208  94.8074 288.8855 14.14564594243589
MIDORI II (ADEOS-II)    
1 27597U 02056A   26170.16811061  .00000190  00000+0  92421-4 0  9994
2 27597  98.7878 129.4448 0002176  74.0598 286.0823 14.29350497224797
H-2A R/B                
1 27601U 02056E   26170.16521873  .00000140  00000+0  63880-4 0  9991
2 27601  98.3312 126.7676 0069272 218.5963 151.4328 14.33822710228657
CZ-4B R/B               
1 28059U 03049C   26170.22538297  .00000215  00000+0  61059-4 0  9996
2 28059  98.6896 169.1531 0046920 282.2020  77.3923 14.55101316201365
CZ-2C R/B               
1 28222U 04012C   26170.18791668  .00093829  00000+0  51773-3 0  9991
2 28222  97.7074 246.0842 0009577 275.1367  84.8806 15.79325175220213
SL-16 R/B               
1 28353U 04021B   26170.28264620 -.00000202  00000+0 -80292-4 0  9994
2 28353  71.0006  19.2915 0007182 252.1880 107.8460 14.14607591137205
CZ-4B R/B               
1 28415U 04035C   26170.09384266  .00006144  00000+0  20725-3 0  9999
2 28415  97.3361 203.1459 0029668 330.9548  29.0041 15.30648898195416
CZ-2C R/B               
1 28480U 04046B   26170.22490286  .00000049  00000+0  33718-4 0  9993
2 28480  98.1944  78.8785 0138583 214.1949 145.0250 14.27026854122988
ARIANE 5 R/B            
1 28499U 04049H   26170.21839946  .00000433  00000+0  54220-4 0  9993
2 28499  98.2722 342.5495 0084355  22.8933 337.6006 14.85451162160861
CZ-2D R/B               
1 28738U 05024B   26170.00434923  .00046035  00000+0  38756-3 0  9999
2 28738  97.3481 189.5233 0003060  50.3212 309.8320 15.69723670155625
ALOS (DAICHI)           
1 28931U 06002A   26170.13248978  .00000795  00000+0  14067-3 0  9990
2 28931  98.1324 125.6938 0001376  56.4829 303.6508 14.70053646 88385
